EUTELSAT 21B            
1 38992U 12062B   25232.25669740  .00000113  00000+0  00000+0 0  9998
2 38992   0.0703 343.5313 0003122 160.7003 298.6256  1.00274934 46817
EUTELSAT 70B            
1 39020U 12069A   25232.40498267 -.00000062  00000+0  00000+0 0  9993
2 39020   0.0667 343.2503 0003647 168.7969  33.2302  1.00273050 46495
EUTELSAT 117 WEST A     
1 39122U 13012A   25232.53169942 -.00000031  00000+0  00000+0 0  9990
2 39122   0.0584 285.5385 0002785 237.5207 240.6414  1.00271762 45411
EUTELSAT 7B             
1 39163U 13022A   25232.32100230  .00000030  00000+0  00000+0 0  9996
2 39163   0.0708 343.3702 0001799  60.7897  47.2745  1.00271872 44942
EXPRESS-AT1             
1 39612U 14010A   25232.47345076  .00000061  00000+0  00000+0 0  9992
2 39612   0.0113 172.7116 0000343 229.4331 153.3282  1.00270227 41805
EXPRESS-AT2             
1 39613U 14010B   25232.52923663 -.00000300  00000+0  00000+0 0  9990
2 39613   0.0127 171.2607 0000204 135.4676 352.7365  1.00271452 41486
EUTELSAT 3B             
1 39773U 14030A   25232.39154928  .00000002  00000+0  00000+0 0  9992
2 39773   0.0663 343.7696 0004287 173.7518 315.5057  1.00273690 41051
EUTELSAT 115 WEST B     
1 40425U 15010B   25232.36823583 -.00000043  00000+0  00000+0 0  9990
2 40425   0.0107 245.7945 0000414 192.3329 268.4695  1.00274865 38373
